*******************************************************************************
Ephemeris / WWW_USER Mon Mar 10 08:28:38 2025 Pasadena, USA      / Horizons    
*******************************************************************************
Target body name: 300163 (2006 VW139)             {source: JPL#20}
Center body name: Earth (399)                     {source: DE441}
Center-site name: Mauna Kea
*******************************************************************************
Start time      : A.D. 2018-Sep-25 04:25:00.0000 UT      
Stop  time      : A.D. 2018-Sep-25 16:02:00.0000 UT      
Step-size       : 1 minutes
*******************************************************************************
Target pole/equ : undefined
Target radii    : undefined                                                    
Center geodetic : 204.5278, 19.8260847, 4.21024   {E-lon(deg),Lat(deg),Alt(km)}
Center cylindric: 204.5278, 6006.35451, 2151.0229 {E-lon(deg),Dxy(km),Dz(km)}
Center pole/equ : ITRF93                          {East-longitude positive}
Center radii    : 6378.137, 6378.137, 6356.752 km {Equator_a, b, pole_c}       
Target primary  : Sun
Vis. interferer : MOON (R_eq= 1737.400) km        {source: DE441}
Rel. light bend : Sun                             {source: DE441}
Rel. lght bnd GM: 1.3271E+11 km^3/s^2                                          
Small-body perts: Yes                             {source: SB441-N16}
Atmos refraction: NO (AIRLESS)
RA format       : HMS
Time format     : CAL 
Calendar mode   : Mixed Julian/Gregorian
RTS-only print  : NO       
EOP file        : eop.250307.p250603                                           
EOP coverage    : DATA-BASED 1962-JAN-20 TO 2025-MAR-07. PREDICTS-> 2025-JUN-02
Units conversion: 1 au= 149597870.700 km, c= 299792.458 km/s, 1 day= 86400.0 s 
Table cut-offs 1: Elevation (-90.0deg=NO ),Airmass (>38.000=NO), Daylight (YES)
Table cut-offs 2: Solar elongation (  0.0,180.0=NO ),Local Hour Angle( 0.0=NO )
Table cut-offs 3: RA/DEC angular rate (     0.0=NO )                           
*******************************************************************************
Initial IAU76/J2000 heliocentric ecliptic osculating elements (au, days, deg.):
  EPOCH=  2457991.5 ! 2017-Aug-26.00 (TDB)         Residual RMS= .24052        
   EC= .2010729135113919   QR= 2.43581750533798    TP= 2457700.5743979034      
   OM= 83.18687361565334   W=  281.0057800900049   IN= 3.240211778004737       
  Equivalent ICRF heliocentric cartesian coordinates (au, au/d):
   X= 5.132894709524352E-01  Y= 2.513143937276953E+00  Z= 1.078150377913554E+00
  VX=-1.001562838274837E-02 VY= 3.317467852193382E-03 VZ= 2.080280624827025E-03
Asteroid physical parameters (km, seconds, rotational period in hours):        
   GM= n.a.                RAD= n.a.               ROTPER= 3240.               
   H= 16.21                G= .150                 B-V= n.a.                   
                           ALBEDO= n.a.            STYP= n.a.                  
*******************************************************************************
 Date__(UT)__HR:MN     R.A._________(ICRF)_________DEC
******************************************************
$$SOE
 2018-Sep-25 06:28  m  10 29 10.366535 +12 00 25.21554
 2018-Sep-25 06:29  m  10 29 10.416176 +12 00 24.94791
 2018-Sep-25 06:30  m  10 29 10.465817 +12 00 24.68029
 2018-Sep-25 06:31  m  10 29 10.515460 +12 00 24.41268
 2018-Sep-25 06:32  m  10 29 10.565104 +12 00 24.14507
 2018-Sep-25 06:33  m  10 29 10.614749 +12 00 23.87747
 2018-Sep-25 06:34  m  10 29 10.664396 +12 00 23.60988
 2018-Sep-25 06:35  m  10 29 10.714043 +12 00 23.34230
 2018-Sep-25 06:36  m  10 29 10.763692 +12 00 23.07472
 2018-Sep-25 06:37  m  10 29 10.813342 +12 00 22.80714
 2018-Sep-25 06:38  m  10 29 10.862992 +12 00 22.53958
 2018-Sep-25 06:39  m  10 29 10.912644 +12 00 22.27202
 2018-Sep-25 06:40  m  10 29 10.962297 +12 00 22.00447
 2018-Sep-25 06:41  m  10 29 11.011952 +12 00 21.73692
 2018-Sep-25 06:42  m  10 29 11.061607 +12 00 21.46939
 2018-Sep-25 06:43  m  10 29 11.111263 +12 00 21.20186
 2018-Sep-25 06:44  m  10 29 11.160920 +12 00 20.93433
 2018-Sep-25 06:45  m  10 29 11.210579 +12 00 20.66682
 2018-Sep-25 06:46  m  10 29 11.260238 +12 00 20.39931
 2018-Sep-25 06:47  m  10 29 11.309898 +12 00 20.13180
 2018-Sep-25 06:48  m  10 29 11.359560 +12 00 19.86431
 2018-Sep-25 06:49  m  10 29 11.409222 +12 00 19.59682
 2018-Sep-25 06:50  m  10 29 11.458886 +12 00 19.32934
 2018-Sep-25 06:51  m  10 29 11.508550 +12 00 19.06186
 2018-Sep-25 06:52  m  10 29 11.558216 +12 00 18.79439
 2018-Sep-25 06:53  m  10 29 11.607882 +12 00 18.52693
 2018-Sep-25 06:54  m  10 29 11.657549 +12 00 18.25948
 2018-Sep-25 06:55  m  10 29 11.707217 +12 00 17.99203
 2018-Sep-25 06:56  m  10 29 11.756887 +12 00 17.72459
 2018-Sep-25 06:57  m  10 29 11.806557 +12 00 17.45716
 2018-Sep-25 06:58  m  10 29 11.856228 +12 00 17.18973
 2018-Sep-25 06:59  m  10 29 11.905900 +12 00 16.92232
 2018-Sep-25 07:00  m  10 29 11.955573 +12 00 16.65491
 2018-Sep-25 07:01  m  10 29 12.005246 +12 00 16.38750
 2018-Sep-25 07:02  m  10 29 12.054921 +12 00 16.12011
 2018-Sep-25 07:03  m  10 29 12.104597 +12 00 15.85272
 2018-Sep-25 07:04  m  10 29 12.154273 +12 00 15.58533
 2018-Sep-25 07:05  m  10 29 12.203950 +12 00 15.31796
 2018-Sep-25 07:06  m  10 29 12.253628 +12 00 15.05059
 2018-Sep-25 07:07  m  10 29 12.303307 +12 00 14.78323
 2018-Sep-25 07:08  m  10 29 12.352987 +12 00 14.51588
 2018-Sep-25 07:09  m  10 29 12.402667 +12 00 14.24853
 2018-Sep-25 07:10  m  10 29 12.452349 +12 00 13.98119
 2018-Sep-25 07:11  m  10 29 12.502031 +12 00 13.71386
 2018-Sep-25 07:12  m  10 29 12.551714 +12 00 13.44654
 2018-Sep-25 07:13  m  10 29 12.601397 +12 00 13.17922
 2018-Sep-25 07:14  m  10 29 12.651082 +12 00 12.91191
 2018-Sep-25 07:15  m  10 29 12.700767 +12 00 12.64461
 2018-Sep-25 07:16  m  10 29 12.750453 +12 00 12.37732
 2018-Sep-25 07:17  m  10 29 12.800139 +12 00 12.11003
 2018-Sep-25 07:18  m  10 29 12.849827 +12 00 11.84275
 2018-Sep-25 07:19  m  10 29 12.899515 +12 00 11.57548
 2018-Sep-25 07:20  m  10 29 12.949203 +12 00 11.30821
 2018-Sep-25 07:21  m  10 29 12.998893 +12 00 11.04096
 2018-Sep-25 07:22  m  10 29 13.048583 +12 00 10.77371
 2018-Sep-25 07:23  m  10 29 13.098274 +12 00 10.50646
 2018-Sep-25 07:24  m  10 29 13.147965 +12 00 10.23923
 2018-Sep-25 07:25  m  10 29 13.197657 +12 00 09.97200
 2018-Sep-25 07:26  m  10 29 13.247350 +12 00 09.70478
 2018-Sep-25 07:27  m  10 29 13.297043 +12 00 09.43757
 2018-Sep-25 07:28  m  10 29 13.346737 +12 00 09.17036
 2018-Sep-25 07:29  m  10 29 13.396432 +12 00 08.90317
 2018-Sep-25 07:30  m  10 29 13.446127 +12 00 08.63598
 2018-Sep-25 07:31  m  10 29 13.495823 +12 00 08.36879
 2018-Sep-25 07:32  m  10 29 13.545519 +12 00 08.10162
 2018-Sep-25 07:33  m  10 29 13.595216 +12 00 07.83445
 2018-Sep-25 07:34  m  10 29 13.644913 +12 00 07.56729
 2018-Sep-25 07:35  m  10 29 13.694611 +12 00 07.30014
 2018-Sep-25 07:36  m  10 29 13.744310 +12 00 07.03299
 2018-Sep-25 07:37  m  10 29 13.794009 +12 00 06.76586
 2018-Sep-25 07:38  m  10 29 13.843708 +12 00 06.49873
 2018-Sep-25 07:39  m  10 29 13.893408 +12 00 06.23160
 2018-Sep-25 07:40  m  10 29 13.943109 +12 00 05.96449
 2018-Sep-25 07:41  m  10 29 13.992810 +12 00 05.69738
 2018-Sep-25 07:42  m  10 29 14.042511 +12 00 05.43028
 2018-Sep-25 07:43  m  10 29 14.092213 +12 00 05.16319
 2018-Sep-25 07:44  m  10 29 14.141915 +12 00 04.89611
 2018-Sep-25 07:45  m  10 29 14.191618 +12 00 04.62903
 2018-Sep-25 07:46  m  10 29 14.241321 +12 00 04.36196
 2018-Sep-25 07:47  m  10 29 14.291025 +12 00 04.09490
 2018-Sep-25 07:48  m  10 29 14.340729 +12 00 03.82785
 2018-Sep-25 07:49  m  10 29 14.390433 +12 00 03.56080
 2018-Sep-25 07:50  m  10 29 14.440138 +12 00 03.29376
 2018-Sep-25 07:51  m  10 29 14.489843 +12 00 03.02673
 2018-Sep-25 07:52  m  10 29 14.539549 +12 00 02.75971
 2018-Sep-25 07:53  m  10 29 14.589255 +12 00 02.49269
 2018-Sep-25 07:54  m  10 29 14.638961 +12 00 02.22569
 2018-Sep-25 07:55  m  10 29 14.688668 +12 00 01.95869
 2018-Sep-25 07:56  m  10 29 14.738375 +12 00 01.69169
 2018-Sep-25 07:57  m  10 29 14.788082 +12 00 01.42471
 2018-Sep-25 07:58  m  10 29 14.837789 +12 00 01.15773
 2018-Sep-25 07:59  m  10 29 14.887497 +12 00 00.89076
 2018-Sep-25 08:00  m  10 29 14.937205 +12 00 00.62380
 2018-Sep-25 08:01  m  10 29 14.986914 +12 00 00.35685
 2018-Sep-25 08:02  m  10 29 15.036622 +12 00 00.08990
 2018-Sep-25 08:03  m  10 29 15.086331 +11 59 59.82297
 2018-Sep-25 08:04  m  10 29 15.136040 +11 59 59.55604
 2018-Sep-25 08:05  m  10 29 15.185749 +11 59 59.28911
 2018-Sep-25 08:06  m  10 29 15.235459 +11 59 59.02220
 2018-Sep-25 08:07  m  10 29 15.285169 +11 59 58.75529
 2018-Sep-25 08:08  m  10 29 15.334878 +11 59 58.48839
 2018-Sep-25 08:09  m  10 29 15.384588 +11 59 58.22150
 2018-Sep-25 08:10  m  10 29 15.434299 +11 59 57.95462
 2018-Sep-25 08:11  m  10 29 15.484009 +11 59 57.68774
 2018-Sep-25 08:12  m  10 29 15.533720 +11 59 57.42087
 2018-Sep-25 08:13  m  10 29 15.583430 +11 59 57.15401
 2018-Sep-25 08:14  m  10 29 15.633141 +11 59 56.88716
 2018-Sep-25 08:15  m  10 29 15.682852 +11 59 56.62032
 2018-Sep-25 08:16  m  10 29 15.732563 +11 59 56.35348
 2018-Sep-25 08:17  m  10 29 15.782274 +11 59 56.08665
 2018-Sep-25 08:18  m  10 29 15.831985 +11 59 55.81983
 2018-Sep-25 08:19  m  10 29 15.881697 +11 59 55.55301
 2018-Sep-25 08:20  m  10 29 15.931408 +11 59 55.28621
 2018-Sep-25 08:21  m  10 29 15.981119 +11 59 55.01941
 2018-Sep-25 08:22  m  10 29 16.030831 +11 59 54.75262
 2018-Sep-25 08:23  m  10 29 16.080542 +11 59 54.48584
 2018-Sep-25 08:24  m  10 29 16.130254 +11 59 54.21906
 2018-Sep-25 08:25  m  10 29 16.179965 +11 59 53.95230
 2018-Sep-25 08:26  m  10 29 16.229677 +11 59 53.68554
 2018-Sep-25 08:27  m  10 29 16.279388 +11 59 53.41879
 2018-Sep-25 08:28  m  10 29 16.329100 +11 59 53.15204
 2018-Sep-25 08:29  m  10 29 16.378811 +11 59 52.88531
 2018-Sep-25 08:30  m  10 29 16.428522 +11 59 52.61858
